[{"OBJECT_NAME":"STARLINK-5624","OBJECT_ID":"2023-014AB","EPOCH":"2026-01-13T17:58:58.973088","MEAN_MOTION":14.98340559,"ECCENTRICITY":0.0002848,"INCLINATION":69.9982,"RA_OF_ASC_NODE":222.9378,"ARG_OF_PERICENTER":265.4837,"MEAN_ANOMALY":94.5997,"EPHEMERIS_TYPE":0,"CLASSIFICATION_TYPE":"U","NORAD_CAT_ID":55416,"ELEMENT_SET_NO":999,"REV_AT_EPOCH":16333,"BSTAR":6.283234e-5,"MEAN_MOTION_DOT":6.57e-6,"MEAN_MOTION_DDOT":0},{"OBJECT_NAME":"STARLINK-5030","OBJECT_ID":"2023-014AD","EPOCH":"2026-01-13T19:47:08.059776","MEAN_MOTION":14.98331807,"ECCENTRICITY":0.00025556,"INCLINATION":69.9984,"RA_OF_ASC_NODE":222.7988,"ARG_OF_PERICENTER":270.7165,"MEAN_ANOMALY":89.3701,"EPHEMERIS_TYPE":0,"CLASSIFICATION_TYPE":"U","NORAD_CAT_ID":55418,"ELEMENT_SET_NO":999,"REV_AT_EPOCH":16334,"BSTAR":-1.6965479e-5,"MEAN_MOTION_DOT":-2.95e-6,"MEAN_MOTION_DDOT":0},{"OBJECT_NAME":"STARLINK-5629","OBJECT_ID":"2023-014AE","EPOCH":"2026-01-13T17:52:56.384256","MEAN_MOTION":14.98346094,"ECCENTRICITY":0.00029281,"INCLINATION":69.9968,"RA_OF_ASC_NODE":222.9238,"ARG_OF_PERICENTER":268.4619,"MEAN_ANOMALY":91.6204,"EPHEMERIS_TYPE":0,"CLASSIFICATION_TYPE":"U","NORAD_CAT_ID":55419,"ELEMENT_SET_NO":999,"REV_AT_EPOCH":16333,"BSTAR":0.00015397966,"MEAN_MOTION_DOT":1.745e-5,"MEAN_MOTION_DDOT":0},{"OBJECT_NAME":"STARLINK-5604","OBJECT_ID":"2023-014AF","EPOCH":"2026-01-13T17:10:15.001824","MEAN_MOTION":14.98331487,"ECCENTRICITY":0.00024327,"INCLINATION":70,"RA_OF_ASC_NODE":183.0875,"ARG_OF_PERICENTER":285.791,"MEAN_ANOMALY":74.2981,"EPHEMERIS_TYPE":0,"CLASSIFICATION_TYPE":"U","NORAD_CAT_ID":55420,"ELEMENT_SET_NO":999,"REV_AT_EPOCH":16431,"BSTAR":-7.342027e-6,"MEAN_MOTION_DOT":-1.81e-6,"MEAN_MOTION_DDOT":0},{"OBJECT_NAME":"STARLINK-5598","OBJECT_ID":"2023-014AG","EPOCH":"2026-01-13T19:41:06.416160","MEAN_MOTION":14.98340438,"ECCENTRICITY":0.00025163,"INCLINATION":69.9982,"RA_OF_ASC_NODE":222.7853,"ARG_OF_PERICENTER":271.5561,"MEAN_ANOMALY":88.5309,"EPHEMERIS_TYPE":0,"CLASSIFICATION_TYPE":"U","NORAD_CAT_ID":55421,"ELEMENT_SET_NO":999,"REV_AT_EPOCH":16334,"BSTAR":7.9253887e-5,"MEAN_MOTION_DOT":8.53e-6,"MEAN_MOTION_DDOT":0},{"OBJECT_NAME":"STARLINK-5006","OBJECT_ID":"2023-014AH","EPOCH":"2026-01-13T17:34:56.158752","MEAN_MOTION":14.98330527,"ECCENTRICITY":0.00027352,"INCLINATION":69.9987,"RA_OF_ASC_NODE":222.8746,"ARG_OF_PERICENTER":274.8218,"MEAN_ANOMALY":85.2628,"EPHEMERIS_TYPE":0,"CLASSIFICATION_TYPE":"U","NORAD_CAT_ID":55422,"ELEMENT_SET_NO":999,"REV_AT_EPOCH":16333,"BSTAR":2.1275471e-5,"MEAN_MOTION_DOT":1.61e-6,"MEAN_MOTION_DDOT":0},{"OBJECT_NAME":"STARLINK-5068","OBJECT_ID":"2023-014AJ","EPOCH":"2026-01-13T20:05:10.295808","MEAN_MOTION":14.98330609,"ECCENTRICITY":0.0002683,"INCLINATION":69.9984,"RA_OF_ASC_NODE":222.8411,"ARG_OF_PERICENTER":268.4585,"MEAN_ANOMALY":91.6267,"EPHEMERIS_TYPE":0,"CLASSIFICATION_TYPE":"U","NORAD_CAT_ID":55423,"ELEMENT_SET_NO":999,"REV_AT_EPOCH":16334,"BSTAR":5.2786458e-5,"MEAN_MOTION_DOT":5.37e-6,"MEAN_MOTION_DDOT":0},{"OBJECT_NAME":"STARLINK-5615","OBJECT_ID":"2023-014AL","EPOCH":"2026-01-13T19:53:08.886048","MEAN_MOTION":14.98330396,"ECCENTRICITY":0.00024293,"INCLINATION":69.9983,"RA_OF_ASC_NODE":222.8144,"ARG_OF_PERICENTER":265.4164,"MEAN_ANOMALY":94.6718,"EPHEMERIS_TYPE":0,"CLASSIFICATION_TYPE":"U","NORAD_CAT_ID":55425,"ELEMENT_SET_NO":999,"REV_AT_EPOCH":16334,"BSTAR":-2.2073313e-5,"MEAN_MOTION_DOT":-3.56e-6,"MEAN_MOTION_DDOT":0},{"OBJECT_NAME":"STARLINK-5638","OBJECT_ID":"2023-014AM","EPOCH":"2026-01-13T17:04:55.764192","MEAN_MOTION":14.98314841,"ECCENTRICITY":0.00024569,"INCLINATION":69.9982,"RA_OF_ASC_NODE":223.2092,"ARG_OF_PERICENTER":273.8286,"MEAN_ANOMALY":86.2592,"EPHEMERIS_TYPE":0,"CLASSIFICATION_TYPE":"U","NORAD_CAT_ID":55426,"ELEMENT_SET_NO":999,"REV_AT_EPOCH":16332,"BSTAR":4.9800483e-5,"MEAN_MOTION_DOT":5.01e-6,"MEAN_MOTION_DDOT":0},{"OBJECT_NAME":"STARLINK-5073","OBJECT_ID":"2023-014AN","EPOCH":"2026-01-14T00:00:02.000160","MEAN_MOTION":15.87072523,"ECCENTRICITY":0.00040649,"INCLINATION":69.9955,"RA_OF_ASC_NODE":214.6373,"ARG_OF_PERICENTER":274.4739,"MEAN_ANOMALY":358.386,"EPHEMERIS_TYPE":0,"CLASSIFICATION_TYPE":"U","NORAD_CAT_ID":55427,"ELEMENT_SET_NO":999,"REV_AT_EPOCH":580,"BSTAR":0.004550873,"MEAN_MOTION_DOT":0.01344782,"MEAN_MOTION_DDOT":0},{"OBJECT_NAME":"STARLINK-5064","OBJECT_ID":"2023-014AP","EPOCH":"2026-01-13T17:16:56.704800","MEAN_MOTION":14.98330927,"ECCENTRICITY":0.00025342,"INCLINATION":69.9982,"RA_OF_ASC_NODE":223.2383,"ARG_OF_PERICENTER":270.0375,"MEAN_ANOMALY":90.0494,"EPHEMERIS_TYPE":0,"CLASSIFICATION_TYPE":"U","NORAD_CAT_ID":55428,"ELEMENT_SET_NO":999,"REV_AT_EPOCH":16332,"BSTAR":8.578074e-6,"MEAN_MOTION_DOT":9.0e-8,"MEAN_MOTION_DDOT":0},{"OBJECT_NAME":"STARLINK-5645","OBJECT_ID":"2023-014AQ","EPOCH":"2026-01-13T20:11:10.833504","MEAN_MOTION":14.98329699,"ECCENTRICITY":0.00023385,"INCLINATION":69.9984,"RA_OF_ASC_NODE":222.8574,"ARG_OF_PERICENTER":270.5964,"MEAN_ANOMALY":89.4927,"EPHEMERIS_TYPE":0,"CLASSIFICATION_TYPE":"U","NORAD_CAT_ID":55429,"ELEMENT_SET_NO":999,"REV_AT_EPOCH":16334,"BSTAR":-3.400425e-6,"MEAN_MOTION_DOT":-1.33e-6,"MEAN_MOTION_DDOT":0},{"OBJECT_NAME":"STARLINK-5642","OBJECT_ID":"2023-014AR","EPOCH":"2026-01-13T18:23:20.722848","MEAN_MOTION":14.98336077,"ECCENTRICITY":0.00028134,"INCLINATION":69.9978,"RA_OF_ASC_NODE":242.8557,"ARG_OF_PERICENTER":273.2123,"MEAN_ANOMALY":86.8715,"EPHEMERIS_TYPE":0,"CLASSIFICATION_TYPE":"U","NORAD_CAT_ID":55430,"ELEMENT_SET_NO":999,"REV_AT_EPOCH":16284,"BSTAR":-7.6937918e-5,"MEAN_MOTION_DOT":-1.011e-5,"MEAN_MOTION_DDOT":0},{"OBJECT_NAME":"STARLINK-5643","OBJECT_ID":"2023-014AS","EPOCH":"2026-01-13T17:10:55.866432","MEAN_MOTION":14.98324561,"ECCENTRICITY":0.00024605,"INCLINATION":69.9984,"RA_OF_ASC_NODE":223.2232,"ARG_OF_PERICENTER":271.7368,"MEAN_ANOMALY":88.3509,"EPHEMERIS_TYPE":0,"CLASSIFICATION_TYPE":"U","NORAD_CAT_ID":55431,"ELEMENT_SET_NO":999,"REV_AT_EPOCH":16332,"BSTAR":-7.1834235e-5,"MEAN_MOTION_DOT":-9.5e-6,"MEAN_MOTION_DDOT":0},{"OBJECT_NAME":"STARLINK-5637","OBJECT_ID":"2023-014AT","EPOCH":"2026-01-13T18:35:28.635936","MEAN_MOTION":14.98360682,"ECCENTRICITY":0.00024132,"INCLINATION":69.9981,"RA_OF_ASC_NODE":242.8857,"ARG_OF_PERICENTER":265.0795,"MEAN_ANOMALY":95.0088,"EPHEMERIS_TYPE":0,"CLASSIFICATION_TYPE":"U","NORAD_CAT_ID":55432,"ELEMENT_SET_NO":999,"REV_AT_EPOCH":16284,"BSTAR":2.0474671e-5,"MEAN_MOTION_DOT":1.52e-6,"MEAN_MOTION_DDOT":0},{"OBJECT_NAME":"STARLINK-5570","OBJECT_ID":"2023-014AU","EPOCH":"2026-01-13T18:17:19.989888","MEAN_MOTION":14.98332062,"ECCENTRICITY":0.00029864,"INCLINATION":69.998,"RA_OF_ASC_NODE":242.8425,"ARG_OF_PERICENTER":274.6751,"MEAN_ANOMALY":85.4067,"EPHEMERIS_TYPE":0,"CLASSIFICATION_TYPE":"U","NORAD_CAT_ID":55433,"ELEMENT_SET_NO":999,"REV_AT_EPOCH":16284,"BSTAR":-5.9121041e-5,"MEAN_MOTION_DOT":-7.98e-6,"MEAN_MOTION_DDOT":0}]
