STARLINK-5624           
1 55416U 23014AB  26013.74929367  .00000657  00000+0  62832-4 0  9992
2 55416  69.9982 222.9378 0002848 265.4837  94.5997 14.98340559163333
STARLINK-5030           
1 55418U 23014AD  26013.82439884 -.00000295  00000+0 -16965-4 0  9999
2 55418  69.9984 222.7988 0002555 270.7165  89.3701 14.98331807163342
STARLINK-5629           
1 55419U 23014AE  26013.74509704  .00001745  00000+0  15398-3 0  9997
2 55419  69.9968 222.9238 0002928 268.4619  91.6204 14.98346094163334
STARLINK-5604           
1 55420U 23014AF  26013.71545141 -.00000181  00000+0 -73420-5 0  9998
2 55420  70.0000 183.0875 0002432 285.7910  74.2981 14.98331487164314
STARLINK-5598           
1 55421U 23014AG  26013.82021315  .00000853  00000+0  79254-4 0  9997
2 55421  69.9982 222.7853 0002516 271.5561  88.5309 14.98340438163346
STARLINK-5006           
1 55422U 23014AH  26013.73259443  .00000161  00000+0  21275-4 0  9995
2 55422  69.9987 222.8746 0002735 274.8218  85.2628 14.98330527163337
STARLINK-5068           
1 55423U 23014AJ  26013.83692472  .00000537  00000+0  52786-4 0  9998
2 55423  69.9984 222.8411 0002683 268.4585  91.6267 14.98330609163344
STARLINK-5615           
1 55425U 23014AL  26013.82857507 -.00000356  00000+0 -22073-4 0  9998
2 55425  69.9983 222.8144 0002429 265.4164  94.6718 14.98330396163343
STARLINK-5638           
1 55426U 23014AM  26013.71175653  .00000501  00000+0  49800-4 0  9999
2 55426  69.9982 223.2092 0002456 273.8286  86.2592 14.98314841163320
STARLINK-5073           
1 55427U 23014AN  26014.00002315  .01344782  00000+0  45509-2 0  9990
2 55427  69.9955 214.6373 0004064 274.4739 358.3860 15.87072523  5800
STARLINK-5064           
1 55428U 23014AP  26013.72010075  .00000009  00000+0  85781-5 0  9990
2 55428  69.9982 223.2383 0002534 270.0375  90.0494 14.98330927163327
STARLINK-5645           
1 55429U 23014AQ  26013.84109761 -.00000133  00000+0 -34004-5 0  9997
2 55429  69.9984 222.8574 0002338 270.5964  89.4927 14.98329699163347
STARLINK-5642           
1 55430U 23014AR  26013.76621207 -.00001011  00000+0 -76938-4 0  9991
2 55430  69.9978 242.8557 0002813 273.2123  86.8715 14.98336077162848
STARLINK-5643           
1 55431U 23014AS  26013.71592438 -.00000950  00000+0 -71834-4 0  9991
2 55431  69.9984 223.2232 0002460 271.7368  88.3509 14.98324561163328
STARLINK-5637           
1 55432U 23014AT  26013.77463699  .00000152  00000+0  20475-4 0  9991
2 55432  69.9981 242.8857 0002413 265.0795  95.0088 14.98360682162841
STARLINK-5570           
1 55433U 23014AU  26013.76203692 -.00000798  00000+0 -59121-4 0  9994
2 55433  69.9980 242.8425 0002986 274.6751  85.4067 14.98332062162846
